CCSDS_OMM_VERS = 2.0
CREATION_DATE  = 
ORIGINATOR     = 

OBJECT_NAME    = COSMOS 1933
OBJECT_ID      = 1988-020A
CENTER_NAME    = EARTH
REF_FRAME      = TEME
TIME_SYSTEM    = UTC
MEAN_ELEMENT_THEORY = SGP/SGP4

EPOCH          = 2026-02-26T12:25:16.332096
MEAN_MOTION    = 15.17865947
ECCENTRICITY   = .0002895
INCLINATION    = 82.5100
RA_OF_ASC_NODE = 261.9675
ARG_OF_PERICENTER = 225.7635
MEAN_ANOMALY   = 134.3361

EPHEMERIS_TYPE = 0
CLASSIFICATION_TYPE = U
NORAD_CAT_ID   = 18958
ELEMENT_SET_NO = 999
REV_AT_EPOCH   = 4853
BSTAR          = .20035E-3
MEAN_MOTION_DOT = .4086E-4
MEAN_MOTION_DDOT = 0

CCSDS_OMM_VERS = 2.0
CREATION_DATE  = 
ORIGINATOR     = 

OBJECT_NAME    = SL-16 R/B
OBJECT_ID      = 1988-039B
CENTER_NAME    = EARTH
REF_FRAME      = TEME
TIME_SYSTEM    = UTC
MEAN_ELEMENT_THEORY = SGP/SGP4

EPOCH          = 2026-02-26T13:34:06.537216
MEAN_MOTION    = 14.19614044
ECCENTRICITY   = .0022093
INCLINATION    = 71.0130
RA_OF_ASC_NODE = 92.0725
ARG_OF_PERICENTER = 350.8999
MEAN_ANOMALY   = 9.1722

EPHEMERIS_TYPE = 0
CLASSIFICATION_TYPE = U
NORAD_CAT_ID   = 19120
ELEMENT_SET_NO = 999
REV_AT_EPOCH   = 95680
BSTAR          = .77145E-4
MEAN_MOTION_DOT = .115E-5
MEAN_MOTION_DDOT = 0

CCSDS_OMM_VERS = 2.0
CREATION_DATE  = 
ORIGINATOR     = 

OBJECT_NAME    = COSMOS 1953
OBJECT_ID      = 1988-050A
CENTER_NAME    = EARTH
REF_FRAME      = TEME
TIME_SYSTEM    = UTC
MEAN_ELEMENT_THEORY = SGP/SGP4

EPOCH          = 2026-02-26T18:11:01.473216
MEAN_MOTION    = 15.28291854
ECCENTRICITY   = .0011971
INCLINATION    = 82.5104
RA_OF_ASC_NODE = 169.2365
ARG_OF_PERICENTER = 158.2916
MEAN_ANOMALY   = 201.8833

EPHEMERIS_TYPE = 0
CLASSIFICATION_TYPE = U
NORAD_CAT_ID   = 19210
ELEMENT_SET_NO = 999
REV_AT_EPOCH   = 3611
BSTAR          = .31926E-3
MEAN_MOTION_DOT = .8848E-4
MEAN_MOTION_DDOT = 0

CCSDS_OMM_VERS = 2.0
CREATION_DATE  = 
ORIGINATOR     = 

OBJECT_NAME    = SL-8 R/B
OBJECT_ID      = 1988-053B
CENTER_NAME    = EARTH
REF_FRAME      = TEME
TIME_SYSTEM    = UTC
MEAN_ELEMENT_THEORY = SGP/SGP4

EPOCH          = 2026-02-26T12:58:14.651040
MEAN_MOTION    = 14.38908080
ECCENTRICITY   = .002111
INCLINATION    = 74.0477
RA_OF_ASC_NODE = 133.0170
ARG_OF_PERICENTER = 314.0085
MEAN_ANOMALY   = 148.2780

EPHEMERIS_TYPE = 0
CLASSIFICATION_TYPE = U
NORAD_CAT_ID   = 19257
ELEMENT_SET_NO = 999
REV_AT_EPOCH   = 97499
BSTAR          = .79369E-4
MEAN_MOTION_DOT = .219E-5
MEAN_MOTION_DDOT = 0

CCSDS_OMM_VERS = 2.0
CREATION_DATE  = 
ORIGINATOR     = 

OBJECT_NAME    = COSMOS 1975
OBJECT_ID      = 1988-093A
CENTER_NAME    = EARTH
REF_FRAME      = TEME
TIME_SYSTEM    = UTC
MEAN_ELEMENT_THEORY = SGP/SGP4

EPOCH          = 2026-02-26T06:20:36.835872
MEAN_MOTION    = 15.27863640
ECCENTRICITY   = .0011153
INCLINATION    = 82.5207
RA_OF_ASC_NODE = 129.1516
ARG_OF_PERICENTER = 203.4738
MEAN_ANOMALY   = 156.5994

EPHEMERIS_TYPE = 0
CLASSIFICATION_TYPE = U
NORAD_CAT_ID   = 19573
ELEMENT_SET_NO = 999
REV_AT_EPOCH   = 1766
BSTAR          = .3185E-3
MEAN_MOTION_DOT = .871E-4
MEAN_MOTION_DDOT = 0

CCSDS_OMM_VERS = 2.0
CREATION_DATE  = 
ORIGINATOR     = 

OBJECT_NAME    = SL-14 R/B
OBJECT_ID      = 1988-093B
CENTER_NAME    = EARTH
REF_FRAME      = TEME
TIME_SYSTEM    = UTC
MEAN_ELEMENT_THEORY = SGP/SGP4

EPOCH          = 2026-02-26T11:48:47.237760
MEAN_MOTION    = 14.85640429
ECCENTRICITY   = .0022306
INCLINATION    = 82.5284
RA_OF_ASC_NODE = 52.5569
ARG_OF_PERICENTER = 76.2954
MEAN_ANOMALY   = 40.7041

EPHEMERIS_TYPE = 0
CLASSIFICATION_TYPE = U
NORAD_CAT_ID   = 19574
ELEMENT_SET_NO = 999
REV_AT_EPOCH   = 99937
BSTAR          = .58662E-4
MEAN_MOTION_DOT = .535E-5
MEAN_MOTION_DDOT = 0

CCSDS_OMM_VERS = 2.0
CREATION_DATE  = 
ORIGINATOR     = 

OBJECT_NAME    = SL-16 R/B
OBJECT_ID      = 1988-102B
CENTER_NAME    = EARTH
REF_FRAME      = TEME
TIME_SYSTEM    = UTC
MEAN_ELEMENT_THEORY = SGP/SGP4

EPOCH          = 2026-02-26T17:52:12.810144
MEAN_MOTION    = 14.16150283
ECCENTRICITY   = .0013303
INCLINATION    = 71.0003
RA_OF_ASC_NODE = 174.5245
ARG_OF_PERICENTER = 18.2505
MEAN_ANOMALY   = 341.9093

EPHEMERIS_TYPE = 0
CLASSIFICATION_TYPE = U
NORAD_CAT_ID   = 19650
ELEMENT_SET_NO = 999
REV_AT_EPOCH   = 92534
BSTAR          = -.10085E-3
MEAN_MOTION_DOT = -.248E-5
MEAN_MOTION_DDOT = 0

CCSDS_OMM_VERS = 2.0
CREATION_DATE  = 
ORIGINATOR     = 

OBJECT_NAME    = INTERCOSMOS 24
OBJECT_ID      = 1989-080A
CENTER_NAME    = EARTH
REF_FRAME      = TEME
TIME_SYSTEM    = UTC
MEAN_ELEMENT_THEORY = SGP/SGP4

EPOCH          = 2026-02-26T12:34:08.092128
MEAN_MOTION    = 12.59538320
ECCENTRICITY   = .1187004
INCLINATION    = 82.6041
RA_OF_ASC_NODE = 111.6749
ARG_OF_PERICENTER = 318.7627
MEAN_ANOMALY   = 32.9418

EPHEMERIS_TYPE = 0
CLASSIFICATION_TYPE = U
NORAD_CAT_ID   = 20261
ELEMENT_SET_NO = 999
REV_AT_EPOCH   = 66539
BSTAR          = .17604E-3
MEAN_MOTION_DOT = .596E-5
MEAN_MOTION_DDOT = 0

CCSDS_OMM_VERS = 2.0
CREATION_DATE  = 
ORIGINATOR     = 

OBJECT_NAME    = SL-14 R/B
OBJECT_ID      = 1989-080C
CENTER_NAME    = EARTH
REF_FRAME      = TEME
TIME_SYSTEM    = UTC
MEAN_ELEMENT_THEORY = SGP/SGP4

EPOCH          = 2026-02-26T14:14:04.921728
MEAN_MOTION    = 12.50476890
ECCENTRICITY   = .1230125
INCLINATION    = 82.5970
RA_OF_ASC_NODE = 180.3078
ARG_OF_PERICENTER = 210.1107
MEAN_ANOMALY   = 142.3430

EPHEMERIS_TYPE = 0
CLASSIFICATION_TYPE = U
NORAD_CAT_ID   = 20262
ELEMENT_SET_NO = 999
REV_AT_EPOCH   = 65876
BSTAR          = .18472E-3
MEAN_MOTION_DOT = .62E-5
MEAN_MOTION_DDOT = 0

CCSDS_OMM_VERS = 2.0
CREATION_DATE  = 
ORIGINATOR     = 

OBJECT_NAME    = DELTA 1 R/B
OBJECT_ID      = 1989-089B
CENTER_NAME    = EARTH
REF_FRAME      = TEME
TIME_SYSTEM    = UTC
MEAN_ELEMENT_THEORY = SGP/SGP4

EPOCH          = 2026-02-26T12:22:30.508032
MEAN_MOTION    = 14.50652330
ECCENTRICITY   = .0069709
INCLINATION    = 97.0712
RA_OF_ASC_NODE = 266.7311
ARG_OF_PERICENTER = 156.8364
MEAN_ANOMALY   = 203.6003

EPHEMERIS_TYPE = 0
CLASSIFICATION_TYPE = U
NORAD_CAT_ID   = 20323
ELEMENT_SET_NO = 999
REV_AT_EPOCH   = 89411
BSTAR          = .92089E-4
MEAN_MOTION_DOT = .338E-5
MEAN_MOTION_DDOT = 0

CCSDS_OMM_VERS = 2.0
CREATION_DATE  = 
ORIGINATOR     = 

OBJECT_NAME    = ARIANE 40 R/B
OBJECT_ID      = 1990-005H
CENTER_NAME    = EARTH
REF_FRAME      = TEME
TIME_SYSTEM    = UTC
MEAN_ELEMENT_THEORY = SGP/SGP4

EPOCH          = 2026-02-26T15:00:37.244448
MEAN_MOTION    = 14.39861973
ECCENTRICITY   = .0009194
INCLINATION    = 98.3109
RA_OF_ASC_NODE = 118.6153
ARG_OF_PERICENTER = 233.4125
MEAN_ANOMALY   = 126.6218

EPHEMERIS_TYPE = 0
CLASSIFICATION_TYPE = U
NORAD_CAT_ID   = 20443
ELEMENT_SET_NO = 999
REV_AT_EPOCH   = 89121
BSTAR          = .92373E-4
MEAN_MOTION_DOT = .248E-5
MEAN_MOTION_DDOT = 0

